1 34486U 97051GB  26115.04603435  .00023890  00000+0  16893-2 0  9997
2 34486  86.3893 310.0264 0008527   0.8428 129.8049 15.04738142909853
